ONEWEB-0291             
1 49081U 21075G   24292.81295679 -.00000009  00000+0 -56220-4 0  9992
2 49081  87.9083 126.6624 0001485  73.9959 286.1336 13.17651142153757
ONEWEB-0293             
1 49082U 21075H   24292.83827482  .00000085  00000+0  18539-3 0  9990
2 49082  87.9086 126.6773 0001707  76.4736 283.6586 13.17647807153789
ONEWEB-0294             
1 49083U 21075J   24292.78655371  .00000254  00000+0  67053-3 0  9994
2 49083  87.8839 111.4333 0001739  65.6223 294.5087 13.12444147155039
ONEWEB-0295             
1 49084U 21075K   24292.83744867 -.00000017  00000+0 -76924-4 0  9997
2 49084  87.9083 126.6555 0001347  72.8694 287.2585 13.17647617153743
ONEWEB-0296             
1 49085U 21075L   24292.46211494 -.00000296  00000+0 -85858-3 0  9996
2 49085  87.8843 111.5014 0001290  59.8917 300.2340 13.12443422154996
ONEWEB-0297             
1 49086U 21075M   24292.95036507  .00000466  00000+0  12593-2 0  9993
2 49086  87.8849 111.4200 0001502  88.3528 271.7772 13.12444904155662
ONEWEB-0298             
1 49087U 21075N   24292.84164878  .00002474  00000+0  63388-2 0  9994
2 49087  87.9079 126.6724 0001662  87.9493 272.1829 13.17636576153772
ONEWEB-0299             
1 49088U 21075P   24292.84334154  .00000088  00000+0  19470-3 0  9994
2 49088  87.9081 126.6364 0001327  85.2782 274.8501 13.17650884153758
